KKS-1 (KISEKI)          
1 33499U 09002H   26060.43468504  .00002073  00000+0  26322-3 0  9996
2 33499  98.1188 341.2046 0006474 283.5110  76.5381 14.82790654920227
NOAA 19                 
1 33591U 09005A   26060.45315469  .00000042  00000+0  46486-4 0  9993
2 33591  98.9624 131.2098 0013227 339.1534  20.9097 14.13454803879260
UK-DMC 2                
1 35683U 09041C   26060.56790465  .00001332  00000+0  20144-3 0  9997
2 35683  97.8631 198.2897 0001097  88.2704 271.8631 14.75829797890690
METEOR-M 1              
1 35865U 09049A   26060.50622227  .00000124  00000+0  74356-4 0  9994
2 35865  98.7258  23.8294 0001122 255.8638 104.2416 14.23127542853936
OCEANSAT-2              
1 35931U 09051A   26060.54104127 -.00000033  00000+0  28224-5 0  9993
2 35931  98.2268  58.1735 0016869 175.4040 184.7284 13.99635669864276
SWISSCUBE               
1 35932U 09051B   26060.26609144  .00001467  00000+0  30090-3 0  9995
2 35932  98.4108 326.2594 0006495 178.2176 181.9049 14.62231629873388
BEESAT-1                
1 35933U 09051C   26060.28912142  .00001231  00000+0  25806-3 0  9991
2 35933  98.4037 326.1398 0004732 189.6799 170.4311 14.61509618873425
ITUPSAT1                
1 35935U 09051E   26060.18608492  .00001124  00000+0  24310-3 0  9992
2 35935  98.4126 325.3382 0006684 205.9421 154.1444 14.60246277872975
DMSP 5D-3 F18 (USA 210) 
1 35951U 09057A   26060.50894153  .00000302  00000+0  17940-3 0  9991
2 35951  98.8949  41.5665 0010682 191.7646 168.3279 14.14829749844360
PROBA-2                 
1 36037U 09059B   26060.46665012  .00000362  00000+0  94979-4 0  9998
2 36037  98.2425 245.3148 0012051 251.7540 108.2346 14.54784094865864
YAOGAN-7                
1 36110U 09069A   26060.23907644  .00000900  00000+0  13183-3 0  9991
2 36110  98.0226 306.6900 0025393  30.1544 330.1121 14.77875628873681
XIWANG-1 (HOPE-1)       
1 36122U 09072B   26060.47706266 -.00000188  00000+0 -37530-3 0  9993
2 36122 100.3891  16.0918 0007999 117.0716 243.1214 13.16434377778839
RADUGA-1M 2             
1 36358U 10002A   26060.51213047 -.00000054  00000+0  00000+0 0  9993
2 36358   3.3402  80.2120 0008606 247.2731 110.7238  0.98964355 48955
COSMOS 2463             
1 36519U 10017A   26060.24147919  .00000067  00000+0  56583-4 0  9997
2 36519  82.9643 329.0365 0037474  70.2361  42.0785 13.71657060793135
CARTOSAT-2B             
1 36795U 10035A   26060.47343411  .00000015  00000+0  89314-5 0  9995
2 36795  97.8363 111.9431 0011533 174.6989 185.4347 14.78719654843936
AISSAT 1                
1 36797U 10035C   26060.27005044  .00003061  00000+0  27236-3 0  9999
2 36797  98.1053 315.6843 0010635  59.0251 301.2013 14.96838261848072
TISAT 1                 
1 36799U 10035E   26060.37140273  .00026267  00000+0  98732-3 0  9998
2 36799  98.0642 357.7898 0000072  30.7764 329.3477 15.27148089851226
YAOGAN-10               
1 36834U 10038A   26060.57134159  .00002296  00000+0  27575-3 0  9992
2 36834  97.9089  84.8045 0001619  93.3896  61.1332 14.84974099841231
SHIJIAN-6 04B (SJ-6 04B)
1 37180U 10051B   26060.56652668  .00002071  00000+0  17551-3 0  9995
2 37180  97.8743  64.8705 0008950 326.4858  33.5798 14.99093479839557
FENGYUN 3B              
1 37214U 10059A   26060.54198774  .00000303  00000+0  18004-3 0  9992
2 37214  98.9792 106.0298 0022889 130.2233   4.1068 14.14816326792207
COSMO-SKYMED 4          
1 37216U 10060A   26060.49440571  .00000498  00000+0  69077-4 0  9997
2 37216  97.8858 245.6492 0001410  84.5490 275.5884 14.82149847828616
O/OREOS (USA 219)       
1 37224U 10062C   26060.15675855  .00002953  00000+0  28755-3 0  9991
2 37224  71.9729 324.9554 0016919 271.0216  88.9016 14.93224567100514
ELEKTRO-L 1 (GOMS 2)    
1 37344U 11001A   26060.43345284 -.00000281  00000+0  00000+0 0  9991
2 37344   9.4424  55.5865 0003071   9.9538 180.9617  1.00175086 55409
RESOURCESAT-2           
1 37387U 11015A   26060.40635559 -.00000075  00000+0 -13834-4 0  9993
2 37387  98.7739 128.5453 0006022 160.6419 199.4988 14.21486748770869
YOUTHSAT                
1 37388U 11015B   26060.50125645  .00000292  00000+0  14076-3 0  9992
2 37388  98.3578  39.4742 0013461 301.0948 170.6980 14.25576488772298
APRIZESAT 6             
1 37793U 11044F   26060.36267082  .00001111  00000+0  16397-3 0  9999
2 37793  98.2425 328.6428 0044579  71.4332  48.9813 14.76730821781236
JUGNU                   
1 37839U 11058B   26060.51284566  .00000484  00000+0  11308-3 0  9997
2 37839  19.9599 242.5745 0018613 327.3699  56.1645 14.13736268743777
SRMSAT                  
1 37841U 11058D   26060.07253807  .00000449  00000+0  99838-4 0  9991
2 37841  19.9732 353.8578 0011897  94.9480   9.1184 14.11543719742524
SUOMI NPP               
1 37849U 11061A   26060.49650794  .00000108  00000+0  72136-4 0  9999
2 37849  98.7860   2.1647 0000492 307.8163  52.2968 14.19540848743161
YAOGAN-12               
1 37875U 11066B   26060.52350936  .00008221  00000+0  32868-3 0  9993
2 37875  97.1302 104.1769 0008478 244.1654 115.8711 15.25315963795628
ZIYUAN 3-01 (ZY 3-01)   
1 38046U 12001A   26060.49086174  .00382290  60372-4  95629-3 0  9998
2 38046  97.1541 134.8947 0001296 238.7545 121.3605 15.95739994787391
